[{"OBJECT_NAME":"STARLINK-3270","OBJECT_ID":"2021-125AV","EPOCH":"2026-03-09T17:25:03.092736","MEAN_MOTION":15.08836858,"ECCENTRICITY":0.0001287,"INCLINATION":53.2165,"RA_OF_ASC_NODE":238.9602,"ARG_OF_PERICENTER":77.3274,"MEAN_ANOMALY":282.7862,"EPHEMERIS_TYPE":0,"CLASSIFICATION_TYPE":"U","NORAD_CAT_ID":50199,"ELEMENT_SET_NO":999,"REV_AT_EPOCH":23673,"BSTAR":3.5514258e-5,"MEAN_MOTION_DOT":2.77e-6,"MEAN_MOTION_DDOT":0},{"OBJECT_NAME":"THOR ABLESTAR DEB","OBJECT_ID":"1961-015HM","EPOCH":"2026-03-09T12:53:31.788672","MEAN_MOTION":15.12609006,"ECCENTRICITY":0.0020802,"INCLINATION":66.4912,"RA_OF_ASC_NODE":108.7707,"ARG_OF_PERICENTER":275.236,"MEAN_ANOMALY":209.827,"EPHEMERIS_TYPE":0,"CLASSIFICATION_TYPE":"U","NORAD_CAT_ID":660,"ELEMENT_SET_NO":999,"REV_AT_EPOCH":37032,"BSTAR":0.0020976473,"MEAN_MOTION_DOT":0.00036985,"MEAN_MOTION_DDOT":0}]
